NANOSATC-BR1            
1 40024U 14033Q   26068.98267556  .00020336  00000+0  74295-3 0  9994
2 40024  98.0845  92.7804 0004644 147.6715 212.4808 15.28136801638811
STARLINK-33846          
1 63780U 25091F   26068.98002493  .00024387  00000+0  89263-3 0  9992
2 63780  42.9997  51.1415 0000958 191.9413 168.1416 15.27586198 48992
